IRIDIUM 39              
1 25042U 97069D   25229.85565974  .00000605  00000+0  15276-3 0  9997
2 25042  86.3964 184.7082 0020132  99.3980 260.9501 14.49281546458157
IRIDIUM 38              
1 25043U 97069E   25229.88505357  .00000392  00000+0  12276-3 0  9990
2 25043  86.3972 207.2032 0000574 136.1838 223.9406 14.38159508455085
IRIDIUM 42              
1 25077U 97077A   25229.89740641  .00000396  00000+0  12847-3 0  9992
2 25077  86.3964 213.4400 0001502  85.5243 274.6126 14.36391394450053
IRIDIUM 44              
1 25078U 97077B   25229.89374699  .00000422  00000+0  12688-3 0  9992
2 25078  86.3995 195.2176 0002765 130.3175 229.8266 14.40283250452617
IRIDIUM 45              
1 25104U 97082A   25229.87468727  .00020458  00000+0  68921-3 0  9994
2 25104  86.3588  17.8848 0114038 100.1912 261.2218 15.24476584461682
IRIDIUM 24              
1 25105U 97082B   25229.57912286  .00000412  00000+0  11915-3 0  9995
2 25105  86.3864  54.2410 0009674 228.1431 131.8944 14.42145774452069
IRIDIUM 51              
1 25262U 98018A   25229.44150216  .00030482  00000+0  59878-3 0  9992
2 25262  86.3821  25.4036 0079453  15.0926 345.2672 15.43684577456462
IRIDIUM 57              
1 25273U 98019B   25229.42628824  .00000275  00000+0  88113-4 0  9990
2 25273  86.3968 119.6129 0002073  87.1463 272.9971 14.35927690433576
